TOMORROW-S2             
1 60485U 24149T   26068.75188364  .00008133  00000+0  27683-3 0  9990
2 60485  97.3857 150.0385 0001648 234.3331 125.7757 15.30674935 86869
STARLINK-33682          
1 63433U 25069A   26068.49082582  .00027162  00000+0  92581-3 0  9996
2 63433  53.1574 143.4505 0001227  74.1805 285.9331 15.30201384 53371
